{
  "links" : {
    "next" : "https://api.nasa.gov/neo/rest/v1/feed?start_date=1996-02-23&end_date=1996-02-23&detailed=true&api_key=t0TVs3DtDT2H8Oy2Zy8m2eVrNsAVKAexjcZXUckd",
    "prev" : "https://api.nasa.gov/neo/rest/v1/feed?start_date=1996-02-21&end_date=1996-02-21&detailed=true&api_key=t0TVs3DtDT2H8Oy2Zy8m2eVrNsAVKAexjcZXUckd",
    "self" : "https://api.nasa.gov/neo/rest/v1/feed?start_date=1996-02-22&end_date=1996-02-22&detailed=true&api_key=t0TVs3DtDT2H8Oy2Zy8m2eVrNsAVKAexjcZXUckd"
  },
  "element_count" : 5,
  "near_earth_objects" : {
    "1996-02-22" : [ {
      "links" : {
        "self" : "https://api.nasa.gov/neo/rest/v1/neo/3742127?api_key=t0TVs3DtDT2H8Oy2Zy8m2eVrNsAVKAexjcZXUckd"
      },
      "neo_reference_id" : "3742127",
      "name" : "(2016 CA32)",
      "nasa_jpl_url" : "http://ssd.jpl.nasa.gov/sbdb.cgi?sstr=3742127",
      "absolute_magnitude_h" : 19.7,
      "estimated_diameter" : {
        "kilometers" : {
          "estimated_diameter_min" : 0.3051792326,
          "estimated_diameter_max" : 0.6824015094
        },
        "meters" : {
          "estimated_diameter_min" : 305.1792325939,
          "estimated_diameter_max" : 682.4015094011
        },
        "miles" : {
          "estimated_diameter_min" : 0.1896295249,
          "estimated_diameter_max" : 0.4240245083
        },
        "feet" : {
          "estimated_diameter_min" : 1001.2442334633,
          "estimated_diameter_max" : 2238.8501681036
        }
      },
      "is_potentially_hazardous_asteroid" : false,
      "close_approach_data" : [ {
        "close_approach_date" : "1996-02-22",
        "epoch_date_close_approach" : 824976000000,
        "relative_velocity" : {
          "kilometers_per_second" : "28.1269700102",
          "kilometers_per_hour" : "101257.0920366646",
          "miles_per_hour" : "62917.2192157819"
        },
        "miss_distance" : {
          "astronomical" : "0.3196003639",
          "lunar" : "124.324546814",
          "kilometers" : "47811536",
          "miles" : "29708710"
        },
        "orbiting_body" : "Earth"
      } ],
      "orbital_data" : {
        "orbit_id" : "12",
        "orbit_determination_date" : "2017-04-06 08:28:34",
        "orbit_uncertainty" : "5",
        "minimum_orbit_intersection" : ".21133",
        "jupiter_tisserand_invariant" : "2.949",
        "epoch_osculation" : "2458000.5",
        "eccentricity" : ".7438613536737473",
        "semi_major_axis" : "2.507453367437769",
        "inclination" : "19.65152628040083",
        "ascending_node_longitude" : "101.1050352991804",
        "orbital_period" : "1450.266196288393",
        "perihelion_distance" : ".642255711261714",
        "perihelion_argument" : "327.4174435401515",
        "aphelion_distance" : "4.372651023613823",
        "perihelion_time" : "2457365.130791769090",
        "mean_anomaly" : "157.7178834813322",
        "mean_motion" : ".2482302910467978",
        "equinox" : "J2000"
      }
    }, {
      "links" : {
        "self" : "https://api.nasa.gov/neo/rest/v1/neo/2483563?api_key=t0TVs3DtDT2H8Oy2Zy8m2eVrNsAVKAexjcZXUckd"
      },
      "neo_reference_id" : "2483563",
      "name" : "483563 (2004 BD68)",
      "nasa_jpl_url" : "http://ssd.jpl.nasa.gov/sbdb.cgi?sstr=2483563",
      "absolute_magnitude_h" : 18.8,
      "estimated_diameter" : {
        "kilometers" : {
          "estimated_diameter_min" : 0.4619074603,
          "estimated_diameter_max" : 1.0328564805
        },
        "meters" : {
          "estimated_diameter_min" : 461.9074602816,
          "estimated_diameter_max" : 1032.8564805039
        },
        "miles" : {
          "estimated_diameter_min" : 0.2870159005,
          "estimated_diameter_max" : 0.6417870641
        },
        "feet" : {
          "estimated_diameter_min" : 1515.4444719902,
          "estimated_diameter_max" : 3388.6368554964
        }
      },
      "is_potentially_hazardous_asteroid" : false,
      "close_approach_data" : [ {
        "close_approach_date" : "1996-02-22",
        "epoch_date_close_approach" : 824976000000,
        "relative_velocity" : {
          "kilometers_per_second" : "40.1655003941",
          "kilometers_per_hour" : "144595.8014189115",
          "miles_per_hour" : "89846.2078316565"
        },
        "miss_distance" : {
          "astronomical" : "0.4028076183",
          "lunar" : "156.6921691895",
          "kilometers" : "60259164",
          "miles" : "37443308"
        },
        "orbiting_body" : "Earth"
      } ],
      "orbital_data" : {
        "orbit_id" : "29",
        "orbit_determination_date" : "2017-05-12 06:17:39",
        "orbit_uncertainty" : "0",
        "minimum_orbit_intersection" : ".197415",
        "jupiter_tisserand_invariant" : "3.374",
        "epoch_osculation" : "2458000.5",
        "eccentricity" : ".8301290015713686",
        "semi_major_axis" : "1.900646146975765",
        "inclination" : "19.30532651350665",
        "ascending_node_longitude" : "172.1573670438754",
        "orbital_period" : "957.0846065208187",
        "perihelion_distance" : ".3228646586463046",
        "perihelion_argument" : "203.7788882856287",
        "aphelion_distance" : "3.478427635305227",
        "perihelion_time" : "2457759.437058244013",
        "mean_anomaly" : "90.67396804931032",
        "mean_motion" : ".3761422945758863",
        "equinox" : "J2000"
      }
    } ]
  }
}